[{"OBJECT_NAME":"PRAETORIAN SDA_604","OBJECT_ID":"2025-203C","EPOCH":"2026-03-09T19:32:57.437088","MEAN_MOTION":13.8303423,"ECCENTRICITY":0.00068053,"INCLINATION":81.3021,"RA_OF_ASC_NODE":102.9284,"ARG_OF_PERICENTER":107.8605,"MEAN_ANOMALY":252.3294,"EPHEMERIS_TYPE":0,"CLASSIFICATION_TYPE":"U","NORAD_CAT_ID":65567,"ELEMENT_SET_NO":999,"REV_AT_EPOCH":2494,"BSTAR":4.0384414e-5,"MEAN_MOTION_DOT":5.6e-7,"MEAN_MOTION_DDOT":0},{"OBJECT_NAME":"COSMOS 1275 DEB","OBJECT_ID":"1981-053NS","EPOCH":"2026-03-09T12:10:44.321952","MEAN_MOTION":13.76436608,"ECCENTRICITY":0.01174293,"INCLINATION":83.0213,"RA_OF_ASC_NODE":346.2117,"ARG_OF_PERICENTER":211.6962,"MEAN_ANOMALY":147.7089,"EPHEMERIS_TYPE":0,"CLASSIFICATION_TYPE":"U","NORAD_CAT_ID":39956,"ELEMENT_SET_NO":999,"REV_AT_EPOCH":58859,"BSTAR":0.001048595,"MEAN_MOTION_DOT":1.093e-5,"MEAN_MOTION_DDOT":0}]
